{
  "type": "FeatureCollection",
  "features": [
    {
      "type": "Feature",
      "properties": {
        "norad_id": 30750,
        "name": "FENGYUN 1C DEB",
        "group": "fengyun-1c-debris",
        "lat": 54.305744253409216,
        "lon": -94.1592247182975,
        "alt_km": 776.0005294003404,
        "timestamp": "2025-12-24T09:46:31.282639+00:00",
        "meta_object_name": "FENGYUN 1C DEB",
        "meta_object_id": "1999-025ATL",
        "meta_epoch": "2025-12-23T04:53:10.594176",
        "meta_mean_motion": 14.28687308,
        "meta_eccentricity": 0.00394933,
        "meta_inclination": 98.9196,
        "meta_ra_of_asc_node": 71.9837,
        "meta_arg_of_pericenter": 69.6907,
        "meta_mean_anomaly": 347.0208,
        "meta_ephemeris_type": 0,
        "meta_classification_type": "U",
        "meta_norad_cat_id": 30750,
        "meta_element_set_no": 999,
        "meta_rev_at_epoch": 96931,
        "meta_bstar": 0.0016943941,
        "meta_mean_motion_dot": 4.252e-05,
        "meta_mean_motion_ddot": 0,
        "tle_line1": "1 30750U 99025ATL 25357.20359484  .00004252  00000+0  16944-2 0  9995",
        "tle_line2": "2 30750  98.9196  71.9837 0039493  69.6907 347.0208 14.28687308969318"
      },
      "geometry": {
        "type": "Point",
        "coordinates": [
          -94.1592247182975,
          54.305744253409216
        ]
      }
    },
    {
      "type": "Feature",
      "properties": {
        "norad_id": 30751,
        "name": "FENGYUN 1C DEB",
        "group": "fengyun-1c-debris",
        "lat": 13.166934633110845,
        "lon": 55.43492016656704,
        "alt_km": 818.4750860405975,
        "timestamp": "2025-12-24T09:46:31.282649+00:00",
        "meta_object_name": "FENGYUN 1C DEB",
        "meta_object_id": "1999-025ATM",
        "meta_epoch": "2025-12-24T03:10:49.340064",
        "meta_mean_motion": 14.15260804,
        "meta_eccentricity": 0.0051304,
        "meta_inclination": 98.8539,
        "meta_ra_of_asc_node": 57.2519,
        "meta_arg_of_pericenter": 64.0961,
        "meta_mean_anomaly": 350.5308,
        "meta_ephemeris_type": 0,
        "meta_classification_type": "U",
        "meta_norad_cat_id": 30751,
        "meta_element_set_no": 999,
        "meta_rev_at_epoch": 96437,
        "meta_bstar": 0.0014094,
        "meta_mean_motion_dot": 2.733e-05,
        "meta_mean_motion_ddot": 0,
        "tle_line1": "1 30751U 99025ATM 25358.13251551  .00002733  00000+0  14094-2 0  9991",
        "tle_line2": "2 30751  98.8539  57.2519 0051304  64.0961 350.5308 14.15260804964372"
      },
      "geometry": {
        "type": "Point",
        "coordinates": [
          55.43492016656704,
          13.166934633110845
        ]
      }
    },
    {
      "type": "Feature",
      "properties": {
        "norad_id": 30753,
        "name": "FENGYUN 1C DEB",
        "group": "fengyun-1c-debris",
        "lat": 66.34221878808684,
        "lon": 16.079032100259937,
        "alt_km": 854.8574864366537,
        "timestamp": "2025-12-24T09:46:31.282659+00:00",
        "meta_object_name": "FENGYUN 1C DEB",
        "meta_object_id": "1999-025ATP",
        "meta_epoch": "2025-12-23T21:33:25.471872",
        "meta_mean_motion": 14.12689877,
        "meta_eccentricity": 0.0055251,
        "meta_inclination": 98.8065,
        "meta_ra_of_asc_node": 36.3021,
        "meta_arg_of_pericenter": 322.8749,
        "meta_mean_anomaly": 36.8607,
        "meta_ephemeris_type": 0,
        "meta_classification_type": "U",
        "meta_norad_cat_id": 30753,
        "meta_element_set_no": 999,
        "meta_rev_at_epoch": 96509,
        "meta_bstar": 0.0010325,
        "meta_mean_motion_dot": 1.898e-05,
        "meta_mean_motion_ddot": 0,
        "tle_line1": "1 30753U 99025ATP 25357.89821148  .00001898  00000+0  10325-2 0  9994",
        "tle_line2": "2 30753  98.8065  36.3021 0055251 322.8749  36.8607 14.12689877965096"
      },
      "geometry": {
        "type": "Point",
        "coordinates": [
          16.079032100259937,
          66.34221878808684
        ]
      }
    },
    {
      "type": "Feature",
      "properties": {
        "norad_id": 30755,
        "name": "FENGYUN 1C DEB",
        "group": "fengyun-1c-debris",
        "lat": 75.3107930092062,
        "lon": -153.69832507895305,
        "alt_km": 804.7375017194581,
        "timestamp": "2025-12-24T09:46:31.282669+00:00",
        "meta_object_name": "FENGYUN 1C DEB",
        "meta_object_id": "1999-025ATR",
        "meta_epoch": "2025-12-23T23:35:32.095104",
        "meta_mean_motion": 14.44999972,
        "meta_eccentricity": 0.0150842,
        "meta_inclination": 98.2593,
        "meta_ra_of_asc_node": 352.2403,
        "meta_arg_of_pericenter": 234.6879,
        "meta_mean_anomaly": 182.8853,
        "meta_ephemeris_type": 0,
        "meta_classification_type": "U",
        "meta_norad_cat_id": 30755,
        "meta_element_set_no": 999,
        "meta_rev_at_epoch": 98607,
        "meta_bstar": 0.00054146,
        "meta_mean_motion_dot": 2.123e-05,
        "meta_mean_motion_ddot": 0,
        "tle_line1": "1 30755U 99025ATR 25357.98301036  .00002123  00000+0  54146-3 0  9997",
        "tle_line2": "2 30755  98.2593 352.2403 0150842 234.6879 182.8853 14.44999972986079"
      },
      "geometry": {
        "type": "Point",
        "coordinates": [
          -153.69832507895305,
          75.3107930092062
        ]
      }
    },
    {
      "type": "Feature",
      "properties": {
        "norad_id": 30756,
        "name": "FENGYUN 1C DEB",
        "group": "fengyun-1c-debris",
        "lat": 37.763387986068174,
        "lon": 58.92167360422907,
        "alt_km": 850.5094614347972,
        "timestamp": "2025-12-24T09:46:31.282679+00:00",
        "meta_object_name": "FENGYUN 1C DEB",
        "meta_object_id": "1999-025ATS",
        "meta_epoch": "2025-12-23T03:12:52.389216",
        "meta_mean_motion": 14.18333528,
        "meta_eccentricity": 0.00718958,
        "meta_inclination": 98.9903,
        "meta_ra_of_asc_node": 64.6763,
        "meta_arg_of_pericenter": 286.1019,
        "meta_mean_anomaly": 93.3581,
        "meta_ephemeris_type": 0,
        "meta_classification_type": "U",
        "meta_norad_cat_id": 30756,
        "meta_element_set_no": 999,
        "meta_rev_at_epoch": 96552,
        "meta_bstar": 0.0014178346,
        "meta_mean_motion_dot": 2.952e-05,
        "meta_mean_motion_ddot": 0,
        "tle_line1": "1 30756U 99025ATS 25357.13393969  .00002952  00000+0  14178-2 0  9991",
        "tle_line2": "2 30756  98.9903  64.6763 0071895 286.1019  93.3581 14.18333528965524"
      },
      "geometry": {
        "type": "Point",
        "coordinates": [
          58.92167360422907,
          37.763387986068174
        ]
      }
    },
    {
      "type": "Feature",
      "properties": {
        "norad_id": 30758,
        "name": "FENGYUN 1C DEB",
        "group": "fengyun-1c-debris",
        "lat": 21.289511173781158,
        "lon": 113.71922642392457,
        "alt_km": 817.855418163821,
        "timestamp": "2025-12-24T09:46:31.282710+00:00",
        "meta_object_name": "FENGYUN 1C DEB",
        "meta_object_id": "1999-025ATU",
        "meta_epoch": "2025-12-23T13:37:41.179872",
        "meta_mean_motion": 14.17149871,
        "meta_eccentricity": 0.00384604,
        "meta_inclination": 99.0186,
        "meta_ra_of_asc_node": 116.4162,
        "meta_arg_of_pericenter": 331.4715,
        "meta_mean_anomaly": 89.4829,
        "meta_ephemeris_type": 0,
        "meta_classification_type": "U",
        "meta_norad_cat_id": 30758,
        "meta_element_set_no": 999,
        "meta_rev_at_epoch": 96644,
        "meta_bstar": 0.00087556959,
        "meta_mean_motion_dot": 1.731e-05,
        "meta_mean_motion_ddot": 0,
        "tle_line1": "1 30758U 99025ATU 25357.56783773  .00001731  00000+0  87557-3 0  9992",
        "tle_line2": "2 30758  99.0186 116.4162 0038460 331.4715  89.4829 14.17149871966446"
      },
      "geometry": {
        "type": "Point",
        "coordinates": [
          113.71922642392457,
          21.289511173781158
        ]
      }
    },
    {
      "type": "Feature",
      "properties": {
        "norad_id": 30759,
        "name": "FENGYUN 1C DEB",
        "group": "fengyun-1c-debris",
        "lat": -32.77550573833167,
        "lon": -78.62634925196669,
        "alt_km": 715.0399496097589,
        "timestamp": "2025-12-24T09:46:31.282722+00:00",
        "meta_object_name": "FENGYUN 1C DEB",
        "meta_object_id": "1999-025ATV",
        "meta_epoch": "2025-12-22T21:03:46.533888",
        "meta_mean_motion": 14.54698225,
        "meta_eccentricity": 0.0008625,
        "meta_inclination": 99.2575,
        "meta_ra_of_asc_node": 105.7098,
        "meta_arg_of_pericenter": 139.7983,
        "meta_mean_anomaly": 346.9311,
        "meta_ephemeris_type": 0,
        "meta_classification_type": "U",
        "meta_norad_cat_id": 30759,
        "meta_element_set_no": 999,
        "meta_rev_at_epoch": 97802,
        "meta_bstar": 0.0025188,
        "meta_mean_motion_dot": 0.00010745,
        "meta_mean_motion_ddot": 0,
        "tle_line1": "1 30759U 99025ATV 25356.87762192  .00010745  00000+0  25188-2 0  9994",
        "tle_line2": "2 30759  99.2575 105.7098 0008625 139.7983 346.9311 14.54698225978023"
      },
      "geometry": {
        "type": "Point",
        "coordinates": [
          -78.62634925196669,
          -32.77550573833167
        ]
      }
    }
  ]
}